[{"OBJECT_NAME":"ZHUHAI-1 03C","OBJECT_ID":"2019-060D","EPOCH":"2026-03-09T23:14:25.268928","MEAN_MOTION":15.71109528,"ECCENTRICITY":0.00111308,"INCLINATION":97.5515,"RA_OF_ASC_NODE":231.2826,"ARG_OF_PERICENTER":267.4607,"MEAN_ANOMALY":92.5381,"EPHEMERIS_TYPE":0,"CLASSIFICATION_TYPE":"U","NORAD_CAT_ID":44537,"ELEMENT_SET_NO":999,"REV_AT_EPOCH":36152,"BSTAR":0.00082474362,"MEAN_MOTION_DOT":0.00104963,"MEAN_MOTION_DDOT":0},{"OBJECT_NAME":"STARLINK-11467 [DTC]","OBJECT_ID":"2024-217M","EPOCH":"2026-03-09T10:15:45.847008","MEAN_MOTION":15.69708704,"ECCENTRICITY":0.00012147,"INCLINATION":53.1579,"RA_OF_ASC_NODE":72.4555,"ARG_OF_PERICENTER":62.0244,"MEAN_ANOMALY":298.0897,"EPHEMERIS_TYPE":0,"CLASSIFICATION_TYPE":"U","NORAD_CAT_ID":62068,"ELEMENT_SET_NO":999,"REV_AT_EPOCH":7513,"BSTAR":0.0013015098,"MEAN_MOTION_DOT":0.00160157,"MEAN_MOTION_DDOT":0}]
